343P/NEAT-LONEOS,e,5.5866,257.1681,137.4075,5.459141,0.0772712,0.58466277,139.6807,01/11.0/2022,2000,g 14.0,4.0
# From MPC109148
344P/Read,e,3.4922,273.1514,140.3898,4.863738,0.0918859,0.42247355,174.2435,01/11.0/2022,2000,g 13.0,4.0
# From MPC109148
345P/LINEAR,e,2.7274,154.5114,196.4748,4.037146,0.1215045,0.22131580,243.1465,01/11.0/2022,2000,g 12.0,4.0
# From MPC110086
346P/Catalina,e,22.1918,102.4598,335.9583,4.474722,0.1041250,0.50268661,186.6559,01/11.0/2022,2000,g 14.0,4.0
# From MPC108599
347P/PANSTARRS,e,11.7520,261.0222,98.3849,3.605043,0.1439920,0.38598240,280.0792,01/11.0/2022,2000,g 15.0,4.0
# From MPEC 2022-A21
348P/PANSTARRS,e,17.7402,312.9413,135.6598,3.150342,0.1762656,0.30678361,354.2690,01/11.0/2022,2000,g 14.0,4.0
# From MPC112394
349P/Lemmon,e,5.4908,331.7458,255.9986,3.574404,0.1458474,0.29864762,233.4581,01/11.0/2022,2000,g 14.0,4.0
# From MPC111775
350P/McNaught,e,7.3599,65.3097,139.8446,4.088299,0.1192313,0.09224141,177.6433,01/11.0/2022,2000,g 14.0,4.0
# From MPC105244
351P/Wiegert-PANSTARRS,e,12.7841,283.4424,352.6815,4.438229,0.1054119,0.29554506,236.6502,01/11.0/2022,2000,g 12.5,4.0
# From MPC110086
352P/Skiff,e,21.0106,28.0330,309.2609,6.640802,0.0575935,0.61817679,95.7874,01/11.0/2022,2000,g 11.5,4.0
# From MPEC 2020-AA5
353P/McNaught,e,28.4197,121.5529,230.4138,4.171006,0.1157025,0.47030954,171.2935,01/11.0/2022,2000,g 14.5,4.0
# From MPC105545
354P/LINEAR,e,5.2556,320.1281,132.8916,2.289344,0.2845363,0.12569922,177.5459,01/11.0/2022,2000,g 15.5,4.0
# From MPEC 2020-AA5
355P/LINEAR-NEAT,e,11.0432,51.4295,336.2708,3.470913,0.1524188,0.50753336,236.2915,01/11.0/2022,2000,g 15.5,2.0
# From MPEC 2021-F20
356P/WISE,e,9.6380,160.7978,225.9952,4.158546,0.1162229,0.35541701,172.5661,01/11.0/2022,2000,g 14.0,4.0
# From MPC114609
357P/Hill,e,6.3136,44.5618,1.3881,4.459418,0.1046615,0.43520626,138.4110,01/11.0/2022,2000,g 15.5,4.0
# From MPEC 2020-HN5
358P/PANSTARRS,e,11.0594,85.7028,299.7561,3.146912,0.1765538,0.23872299,241.8385,01/11.0/2022,2000,g 18.0,4.0
# From MPC110086
359P/LONEOS,e,10.2674,149.7557,200.2005,4.639832,0.0986168,0.32419865,158.0467,01/11.0/2022,2000,g 13.5,4.0
# From MPC108599
360P/WISE,e,24.1101,2.1909,354.1516,3.701421,0.1384049,0.49913852,222.0826,01/11.0/2022,2000,g 19.5,6.0
# From MPC114609
361P/Spacewatch,e,13.8975,203.2517,219.0211,4.937231,0.0898419,0.43842638,115.7540,01/11.0/2022,2000,g 12.0,4.0
# From MPEC 2017-V13
362P/,e,15.5562,192.5546,53.6806,3.970115,0.1245947,0.27908843,245.1687,01/11.0/2022,2000,g 12.9,2.0
# From MPC114609
363P/Lemmon,e,5.4115,146.8837,341.1709,3.558932,0.1467995,0.52230077,207.8703,01/11.0/2022,2000,g 17.5,4.0
# From MPEC 2021-F20
364P/PANSTARRS,e,12.1365,46.1726,212.0166,2.879638,0.2016960,0.72197841,261.5799,01/11.0/2022,2000,g 17.0,2.0
# From MPC111775
365P/PANSTARRS,e,9.8200,86.8720,66.8143,3.170145,0.1746165,0.57964381,248.8202,01/11.0/2022,2000,g 17.0,4.0
# From MPC114610
366P/Spacewatch,e,8.8579,70.7621,153.1055,3.496193,0.1507686,0.34808327,191.6262,01/11.0/2022,2000,g 15.0,4.0
# From MPC112395
367P/Catalina,e,8.4610,58.7220,172.8753,3.506469,0.1501064,0.27997000,195.2729,01/11.0/2022,2000,g 17.5,2.0
# From MPC114610
368P/NEAT,e,15.4808,257.9094,118.8310,5.527890,0.0758342,0.62661315,92.0619,01/11.0/2022,2000,g 14.0,4.0
# From MPC114610
369P/Hill,e,10.3183,47.2910,13.1618,4.383139,0.1074054,0.55479675,127.1148,01/11.0/2022,2000,g 15.0,4.0
# From MPEC 2021-F20
370P/NEAT,e,19.4123,55.0961,356.6829,6.434337,0.0603877,0.61490489,79.1702,01/11.0/2022,2000,g 13.0,4.0
# From MPC114610
371P/LINEAR-Skiff,e,17.3795,67.2769,308.4936,4.180886,0.1152926,0.47688977,137.6134,01/11.0/2022,2000,g 16.0,4.0
# From MPEC 2020-K19
372P/McNaught,e,9.5096,325.8170,27.4414,4.505984,0.1030433,0.15271701,121.1751,01/11.0/2022,2000,g 13.5,4.0
# From MPEC 2021-F20
373P/Rinner,e,13.7650,231.9508,221.0539,3.802471,0.1329245,0.39239271,134.0219,01/11.0/2022,2000,g 14.5,4.0
# From MPC114610
374P/Larson,e,10.7658,7.9132,51.4617,4.972658,0.0888835,0.46284005,97.4160,01/11.0/2022,2000,g 14.0,4.0
# From MPEC 2021-F20
375P/Hill,e,17.3614,359.9498,119.4180,5.553611,0.0753080,0.65859433,84.1314,01/11.0/2022,2000,g 16.0,4.0
# From MPEC 2021-S45
376P/LONEOS,e,1.1852,314.5670,284.5681,5.806646,0.0704395,0.51693083,59.0660,01/11.0/2022,2000,g 12.5,4.0
# From MPEC 2021-N06
377P/Scotti,e,9.0238,226.0632,355.0515,6.708074,0.0567293,0.25197855,31.0860,01/11.0/2022,2000,g  9.5,4.0
# From MPEC 2021-Y10
378P/McNaught,e,19.0452,94.2823,193.7917,6.359105,0.0614625,0.46916838,27.6343,01/11.0/2022,2000,g 12.0,4.0
# From MPC115889
379P/Spacewatch,e,12.4390,183.8226,30.7774,3.516294,0.1494777,0.34116095,133.5910,01/11.0/2022,2000,g 15.0,4.0
# From MPEC 2020-KB7
380P/PANSTARRS,e,8.2589,132.8623,87.2618,4.476446,0.1040648,0.33592564,99.5328,01/11.0/2022,2000,g 12.5,4.0
# From MPEC 2021-J28
381P/LINEAR-Spacewatch,e,28.3777,173.7617,173.2170,7.129153,0.0517782,0.68192023,43.3308,01/11.0/2022,2000,g 17.5,2.0
# From MPEC 2022-A21
382P/Larson,e,8.2218,173.8565,171.7129,6.483717,0.0596991,0.31841123,357.3547,01/11.0/2022,2000,g  8.0,4.0
# From MPC118844
383P/Christensen,e,12.3226,207.8469,133.7237,3.546037,0.1476010,0.59959155,119.1998,01/11.0/2022,2000,g 18.0,4.0
# From MPEC 2021-S45
384P/Kowalski,e,7.2845,354.2302,37.6173,2.900683,0.1995050,0.61583759,164.0434,01/11.0/2022,2000,g 19.5,4.0
# From MPEC 2021-F20
385P/Hill,e,16.8317,357.0606,44.3248,4.288488,0.1109808,0.40170490,94.2153,01/11.0/2022,2000,g 13.0,4.0
# From MPEC 2021-L04
386P/PANSTARRS,e,15.2297,134.9455,353.1810,4.055163,0.1206957,0.41623416,61.5368,01/11.0/2022,2000,g 14.5,4.0
# From MPEC 2021-J28
387P/Boattini,e,8.9221,259.2937,162.7743,4.797686,0.0937900,0.73633235,80.4346,01/11.0/2022,2000,g 15.0,4.0
# From MPEC 2021-S45
388P/Gibbs,e,23.8765,37.0419,42.3313,5.242686,0.0821057,0.61821033,74.0857,01/11.0/2022,2000,g 13.0,4.0
# From MPEC 2021-S45
390P/Gibbs,e,18.5620,152.2747,232.3615,5.806114,0.0704491,0.70728271,46.4679,01/11.0/2022,2000,g 12.0,4.0
# From MPEC 2021-F20
391P/Kowalski,e,21.2740,124.7346,187.1602,4.681039,0.0973174,0.12039561,135.3553,01/11.0/2022,2000,g  8.0,4.0
# From MPEC 2021-J28
392P/LINEAR,e,4.9312,24.8827,71.9268,6.143262,0.0647300,0.68285377,42.0872,01/11.0/2022,2000,g 14.5,4.0
# From MPEC 2021-BE3
393P/Spacewatch-Hill,e,16.7888,36.4075,328.4590,4.788946,0.0940468,0.12067992,75.8566,01/11.0/2022,2000,g 11.0,4.0
# From MPEC 2020-KB7
394P/PANSTARRS,e,8.5294,98.1252,54.5091,4.331413,0.1093351,0.36763285,84.5060,01/11.0/2022,2000,g 16.0,2.4
# From MPEC 2021-Y10
395P/Catalina-NEAT,e,3.2762,223.6376,89.8726,6.564474,0.0586009,0.38077572,0.6779,01/11.0/2022,2000,g 10.0,4.0
# From MPEC 2020-KB7
396P/,e,5.4364,136.6626,8.5267,6.813135,0.0554222,0.41574790,48.0465,01/11.0/2022,2000,g 12.0,4.0
# From MPEC 2021-O56
397P/Lemmon,e,10.9291,8.1974,14.4701,3.828659,0.1315631,0.40520106,75.0544,01/11.0/2022,2000,g 12.0,4.0
# From MPEC 2021-L04
398P/Boattini,e,11.0153,127.4582,320.2163,3.127652,0.1781871,0.58270333,67.7552,01/11.0/2022,2000,g 15.5,4.0
# From MPEC 2022-A21
399P/PANSTARRS,e,13.3188,207.1402,214.3106,3.790900,0.1335336,0.44708028,31.1659,01/11.0/2022,2000,g 14.0,4.0
# From MPEC 2020-FB5
400P/PANSTARRS,e,10.9296,176.3921,238.8085,3.560851,0.1466808,0.40931101,49.1138,01/11.0/2022,2000,g 15.5,2.8
# From MPEC 2021-R75
401P/McNaught,e,12.8027,359.8803,309.3735,5.774337,0.0710315,0.57996333,54.4040,01/11.0/2022,2000,g 12.5,4.0
# From MPEC 2022-A21
402P/LINEAR,e,30.8511,123.0919,326.7365,7.015814,0.0530380,0.43871986,1.4542,01/11.0/2022,2000,g  8.0,4.0
# From MPEC 2021-J28
403P/Catalina,e,12.3216,163.8124,277.6537,5.427938,0.0779385,0.50356647,37.5379,01/11.0/2022,2000,g 12.0,4.0
# From MPEC 2021-WD8
404P/Bressi,e,9.7143,260.9891,165.3986,4.796724,0.0938182,0.13577036,300.2528,01/11.0/2022,2000,g 10.0,4.0
# From MPEC 2021-L04
405P/Lemmon,e,9.3655,3.3147,112.2218,3.607793,0.1438274,0.68912837,55.0432,01/11.0/2022,2000,g 17.5,4.0
# From MPEC 2021-F20
406P/Gibbs,e,1.2135,11.4746,352.4000,3.575402,0.1457863,0.54205893,70.2995,01/11.0/2022,2000,g 17.0,4.0
# From MPEC 2021-F20
407P/PANSTARRS-Fuls,e,4.8837,80.7130,92.9592,3.465647,0.1527663,0.38372307,108.4173,01/11.0/2022,2000,g 14.0,4.0
# From MPEC 2022-A21
408P/Novichonok-Gerke,e,19.3506,189.4363,226.3158,4.751781,0.0951523,0.27014445,334.6756,01/11.0/2022,2000,g 11.0,4.0
# From MPEC 2021-UA9
409P/LONEOS-Hill,e,17.1190,143.6705,15.1232,6.044557,0.0663220,0.70982497,23.0717,01/11.0/2022,2000,g 14.0,4.0
# From MPEC 2022-A21
410P/NEAT-LINEAR,e,9.3936,139.9806,313.0922,6.635971,0.0576564,0.51070482,11.6143,01/11.0/2022,2000,g 12.5,4.0
# From MPEC 2021-J28
411P/Christensen,e,12.3783,77.6641,46.6536,5.816576,0.0702592,0.58080221,24.7060,01/11.0/2022,2000,g 13.5,4.0
# From MPEC 2021-F20
412P/WISE,e,8.9313,0.8465,155.9263,3.109497,0.1797500,0.47967858,72.2004,01/11.0/2022,2000,g 17.0,4.0
# From MPEC 2021-O56
413P/Larson,e,15.9783,39.0243,186.0531,3.710136,0.1379175,0.42321289,24.1029,01/11.0/2022,2000,g 14.0,4.0
# From MPEC 2021-BE3
414P/STEREO,e,23.3849,257.7894,210.7251,2.794147,0.2110232,0.81162524,73.9926,01/11.0/2022,2000,g 19.0,4.0
# From MPEC 2021-N06
415P/Tenagra,e,31.7920,160.2947,346.1997,4.114822,0.1180803,0.19470997,38.9862,01/11.0/2022,2000,g 12.0,4.0
# From MPEC 2021-L04
416P/Scotti,e,3.3613,355.8118,134.4874,4.012334,0.1226333,0.45430244,40.4202,01/11.0/2022,2000,g 15.5,4.0
# From MPEC 2021-W31
417P/NEOWISE,e,8.1280,111.3314,129.4834,3.350505,0.1607085,0.55481263,42.3871,01/11.0/2022,2000,g 16.5,4.0
# From MPEC 2021-L04
418P/LINEAR,e,5.7975,277.6570,307.1018,5.079265,0.0860999,0.66473481,7.3557,01/11.0/2022,2000,g 13.0,4.0
# From MPEC 2021-S45
419P/PANSTARRS,e,2.8029,40.3899,187.5016,3.520632,0.1492015,0.27761193,11.2705,01/11.0/2022,2000,g 12.5,4.0
# From MPEC 2021-S45
420P/Hill,e,14.5034,173.9551,157.1175,5.525178,0.0758900,0.49533815,350.0108,01/11.0/2022,2000,g 11.5,4.0
# From MPEC 2021-W31
421P/McNaught,e,10.0799,55.3486,259.8301,5.075414,0.0861979,0.67552497,30.1847,01/11.0/2022,2000,g 14.0,4.0
# From MPEC 2022-A21
